[{"OBJECT_NAME":"SITRO-AIS 13","OBJECT_ID":"2024-199J","EPOCH":"2026-03-09T21:50:28.432320","MEAN_MOTION":14.9731664,"ECCENTRICITY":0.00074694,"INCLINATION":97.3312,"RA_OF_ASC_NODE":274.5755,"ARG_OF_PERICENTER":53.5174,"MEAN_ANOMALY":306.6736,"EPHEMERIS_TYPE":0,"CLASSIFICATION_TYPE":"U","NORAD_CAT_ID":61743,"ELEMENT_SET_NO":999,"REV_AT_EPOCH":11713,"BSTAR":0.00039590089,"MEAN_MOTION_DOT":4.542e-5,"MEAN_MOTION_DDOT":0},{"OBJECT_NAME":"UNISAT-2","OBJECT_ID":"2002-058D","EPOCH":"2026-03-09T21:26:58.912224","MEAN_MOTION":14.84095062,"ECCENTRICITY":0.00633056,"INCLINATION":64.5535,"RA_OF_ASC_NODE":329.2093,"ARG_OF_PERICENTER":269.3781,"MEAN_ANOMALY":90.0072,"EPHEMERIS_TYPE":0,"CLASSIFICATION_TYPE":"U","NORAD_CAT_ID":27608,"ELEMENT_SET_NO":999,"REV_AT_EPOCH":25205,"BSTAR":0.00017704747,"MEAN_MOTION_DOT":1.378e-5,"MEAN_MOTION_DDOT":0}]
